STARLINK-30155          
1 57475U 23107U   26068.17935041  .00000391  00000+0  24290-4 0  9996
2 57475  43.0046 338.5844 0002593 269.8096  90.2458 15.26734779145077
TOMORROW-S4             
1 62386U 24247K   26068.53305366  .00012677  00000+0  46927-3 0  9990
2 62386  44.9818 117.9996 0004434 210.4078 149.6548 15.27717249 67702
